{"weatherObservation":{"elevation":73,"lng":-8.681389,"observation":"LPPR 162200Z 35007KT CAVOK 09/06 Q1019","ICAO":"LPPR","clouds":"clouds and visibility OK","dewPoint":"6","cloudsCode":"CAVOK","datetime":"2025-12-16 22:00:00","countryCode":"PT","temperature":"9","humidity":81,"stationName":"Porto / Pedras Rubras","weatherCondition":"n/a","windDirection":350,"hectoPascAltimeter":1019,"windSpeed":"07","lat":41.248055}}