{"weatherObservation":{"elevation":73,"lng":-8.681389,"observation":"LPPR 171100Z 08004KT 030V110 CAVOK 11/06 Q1023","ICAO":"LPPR","clouds":"clouds and visibility OK","dewPoint":"6","cloudsCode":"CAVOK","datetime":"2025-12-17 11:00:00","countryCode":"PT","temperature":"11","humidity":71,"stationName":"Porto / Pedras Rubras","weatherCondition":"n/a","windDirection":80,"hectoPascAltimeter":1023,"windSpeed":"04","lat":41.248055}}