{"weatherObservation":{"elevation":73,"lng":-8.681389,"observation":"LPPR 162100Z 34008KT CAVOK 10/06 Q1018","ICAO":"LPPR","clouds":"clouds and visibility OK","dewPoint":"6","cloudsCode":"CAVOK","datetime":"2025-12-16 21:00:00","countryCode":"PT","temperature":"10","humidity":76,"stationName":"Porto / Pedras Rubras","weatherCondition":"n/a","windDirection":340,"hectoPascAltimeter":1018,"windSpeed":"08","lat":41.248055}}